OBJECT_NAME,OBJECT_ID,EPOCH,MEAN_MOTION,ECCENTRICITY,INCLINATION,RA_OF_ASC_NODE,ARG_OF_PERICENTER,MEAN_ANOMALY,EPHEMERIS_TYPE,CLASSIFICATION_TYPE,NORAD_CAT_ID,ELEMENT_SET_NO,REV_AT_EPOCH,BSTAR,MEAN_MOTION_DOT,MEAN_MOTION_DDOT
EUTELSAT QUANTUM,2021-069B,2026-06-18T18:17:49.761600,1.00272154,.00021116,0.0145,22.6393,63.8054,142.7031,0,U,49056,999,1794,0,.12E-5,0
ZHONGXING-2E,2021-071A,2026-06-18T17:00:36.114912,1.00269218,.00018343,0.0363,206.9520,284.3744,128.8190,0,U,49062,999,1805,0,-.297E-5,0
TJS-7,2021-077A,2026-06-15T06:52:43.035744,1.00269621,.0001963,0.5030,86.1055,333.0157,208.1393,0,U,49115,999,953,0,-.12E-5,0
CHINASAT 9B,2021-080A,2026-06-19T00:59:38.567904,1.00267643,.00015482,0.0393,263.0538,212.4222,268.0821,0,U,49125,999,1766,0,-.318E-5,0
SHIJIAN-21 (SJ-21),2021-094A,2026-06-19T07:27:54.318240,1.00269752,.00497005,5.1189,61.1735,168.2898,278.0807,0,U,49330,999,538,0,-.355E-5,0
SES-17,2021-095A,2026-06-18T14:18:52.046208,1.00269036,.00008114,0.0267,40.8266,45.0665,328.5524,0,U,49332,999,1786,0,-.278E-5,0
SYRACUSE 4A,2021-095B,2026-06-19T06:14:56.927040,1.00268750,.00016356,0.0178,11.5381,69.1185,326.0593,0,U,49333,999,1796,0,.129E-5,0
QZS-1R (MICHIBIKI-1R),2021-096A,2026-06-18T16:08:44.895840,1.00254899,.07546763,37.4655,79.5604,271.8345,291.5952,0,U,49336,999,1702,0,-.287E-5,0
ZHONGXING-1D,2021-114A,2026-06-19T06:39:03.841920,1.00267753,.0000771,0.0132,273.2007,306.4889,277.7300,0,U,49505,999,1684,0,-.343E-5,0
STPSAT-6,2021-118A,2026-06-19T05:30:04.506048,1.00269401,.00012052,0.3272,85.3538,253.8776,259.0996,0,U,49817,999,1659,0,-.52E-6,0
EXPRESS AMU-7,2021-123A,2026-06-19T06:43:18.435072,1.00272128,.00004017,0.0119,299.9806,16.2720,197.0806,0,U,50001,999,1656,0,-.249E-5,0
EXPRESS AMU-3,2021-123B,2026-06-18T23:19:37.013952,1.00270656,.00003279,0.0245,319.2473,323.4823,77.2667,0,U,50002,999,705,0,0,0
TIANLIAN 2-02,2021-124A,2026-06-19T05:07:59.898144,1.00271079,.00014231,0.8075,86.0693,196.0660,233.2649,0,U,50005,999,1664,0,-.21E-6,0
TURKSAT 5B,2021-126A,2026-06-19T02:48:36.163008,1.00271147,.00032341,0.0673,343.7991,12.4246,355.2631,0,U,50212,999,1631,0,.14E-5,0
INMARSAT 6-F1,2021-128A,2026-06-18T20:09:55.247328,1.00270212,.0000303,0.0186,327.5438,244.7765,80.9907,0,U,50319,999,1627,0,-.178E-5,0
SHIYAN-12 01 (SY-12 01),2021-129A,2026-06-17T19:17:22.677216,1.00039709,.0003248,3.6768,79.9013,285.9957,249.0802,0,U,50321,999,1650,0,.79E-6,0
SHIYAN-12 02 (SY-12 02),2021-129B,2026-06-17T18:31:37.411392,1.00489217,.0002693,3.6763,79.9071,60.0968,133.2903,0,U,50322,999,1650,0,-.271E-5,0
TJS-9,2021-135A,2026-06-19T06:41:03.650208,1.00273774,.00035822,0.0371,241.7367,169.6053,93.6257,0,U,50574,999,1645,0,-.305E-5,0
USA 324,2022-006A,2026-06-06T02:06:38.886912,1.00289779,.000284,0.7690,83.2777,165.6787,110.1567,0,U,51280,999,1602,0,-.58E-6,0
GOES 18,2022-021A,2026-06-19T01:57:34.852896,1.00271434,.0000358,0.0138,113.6382,29.2247,16.8308,0,U,51850,999,661,0,.9E-6,0
ZHONGXING-6D,2022-038A,2026-06-18T21:51:38.604672,1.00269323,.000051,0.0139,312.5067,157.5982,249.9006,0,U,52255,999,1544,0,0,0
NILESAT 301,2022-061A,2026-06-19T05:59:58.361856,1.00270942,.00046464,0.0494,17.1916,39.6769,293.5967,0,U,52817,999,1475,0,-.64E-6,0
CMS-02 (GSAT-24),2022-067A,2026-06-19T01:17:38.682816,1.00271968,.0001832,0.0526,255.4344,109.9788,4.2905,0,U,52903,999,1462,0,-.171E-5,0
MEASAT 3D,2022-067B,2026-06-19T03:02:42.311040,1.00271768,.00013719,0.0270,346.8676,27.5211,30.1422,0,U,52904,999,1466,0,-.248E-5,0
SES-22,2022-071A,2026-06-19T05:22:20.247744,1.00272126,.00013436,0.0163,5.4344,70.2349,133.3481,0,U,52933,999,754,0,.98E-6,0
WFOV (USA 332),2022-073A,2026-06-19T06:35:56.640768,1.00274131,.0002089,3.7172,78.5031,254.6709,152.5687,0,U,52940,999,1439,0,-.369E-5,0
TIANLIAN 2-03,2022-078A,2026-06-19T06:04:57.883872,1.00271170,.00014024,0.6762,77.0760,331.9962,320.2287,0,U,53100,999,1456,0,.65E-6,0
SBIRS GEO-6 (USA 336),2022-092A,2026-06-19T06:41:33.601632,1.00270878,.00018183,3.2536,317.5421,119.6273,69.7287,0,U,53355,999,1425,0,-.298E-5,0
EUTELSAT KONNECT VHTS,2022-110A,2026-06-19T06:02:43.099008,1.00269334,.0002429,0.0651,99.7247,332.0374,289.0793,0,U,53765,999,685,0,.1E-6,0
ZHONGXING-1E,2022-112A,2026-06-19T02:59:27.621600,1.00272178,.00007156,0.0440,191.5841,125.1138,76.9266,0,U,53813,999,1386,0,-.156E-5,0
SES-20,2022-123A,2026-06-18T14:54:41.006016,1.00268717,.00017469,0.0291,67.1538,29.3543,290.9129,0,U,53960,999,1354,0,-.107E-5,0
SES-21,2022-123B,2026-06-18T08:52:38.821728,1.00268628,.0001037,0.0391,19.3205,69.0217,180.5054,0,U,53961,999,722,0,0,0
