
CHINASAT 9B
1 49125U 21080A   26170.04141861 -.00000318  00000+0  00000+0 0  9994
2 49125   0.0393 263.0538 0001548 212.4222 268.0821  1.00267643 17664

CMS-02 (GSAT-24)
1 52903U 22067A   26170.05391994 -.00000171  00000+0  00000+0 0  9990
2 52903   0.0526 255.4344 0001832 109.9788   4.2905  1.00271968 14624

EUTELSAT KONNECT VHTS
1 53765U 22110A   26170.25188772  .00000010  00000+0  00000+0 0  9997
2 53765   0.0651  99.7247 0002429 332.0374 289.0793  1.00269334  6852

EUTELSAT QUANTUM
1 49056U 21069B   26169.76238150  .00000120  00000+0  00000+0 0  9999
2 49056   0.0145  22.6393 0002111  63.8054 142.7031  1.00272154 17943

EXPRESS AMU-3
1 50002U 21123B   26169.97195618  .00000000  00000+0  00000+0 0  9994
2 50002   0.0245 319.2473 0000327 323.4823  77.2667  1.00270656  7050

EXPRESS AMU-7
1 50001U 21123A   26170.28007448 -.00000249  00000+0  00000+0 0  9998
2 50001   0.0119 299.9806 0000401  16.2720 197.0806  1.00272128 16567

GOES 18
1 51850U 22021A   26170.08165339  .00000090  00000+0  00000+0 0  9994
2 51850   0.0138 113.6382 0000358  29.2247  16.8308  1.00271434  6610

INMARSAT 6-F1
1 50319U 21128A   26169.84022277 -.00000178  00000+0  00000+0 0  9993
2 50319   0.0186 327.5438 0000303 244.7765  80.9907  1.00270212 16272

MEASAT 3D
1 52904U 22067B   26170.12687860 -.00000248  00000+0  00000+0 0  9994
2 52904   0.0270 346.8676 0001371  27.5211  30.1422  1.00271768 14662

NILESAT 301
1 52817U 22061A   26170.24998104 -.00000064  00000+0  00000+0 0  9996
2 52817   0.0494  17.1916 0004646  39.6769 293.5967  1.00270942 14750

QZS-1R (MICHIBIKI-1R)
1 49336U 21096A   26169.67274185 -.00000287  00000+0  00000+0 0  9993
2 49336  37.4655  79.5604 0754676 271.8345 291.5952  1.00254899 17024

SBIRS GEO-6 (USA 336)
1 53355U 22092A   26170.27886113 -.00000298  00000+0  00000+0 0  9996
2 53355   3.2536 317.5421 0001818 119.6273  69.7287  1.00270878 14256

SES-17
1 49332U 21095A   26169.59643572 -.00000278  00000+0  00000+0 0  9999
2 49332   0.0267  40.8266 0000811  45.0665 328.5524  1.00269036 17868

SES-20
1 53960U 22123A   26169.62130794 -.00000107  00000+0  00000+0 0  9996
2 53960   0.0291  67.1538 0001746  29.3543 290.9129  1.00268717 13548

SES-21
1 53961U 22123B   26169.36989377  .00000000  00000+0  00000+0 0  9998
2 53961   0.0391  19.3205 0001037  69.0217 180.5054  1.00268628  7222

SES-22
1 52933U 22071A   26170.22384546  .00000098  00000+0  00000+0 0  9999
2 52933   0.0163   5.4344 0001343  70.2349 133.3481  1.00272126  7540

SHIJIAN-21 (SJ-21)
1 49330U 21094A   26170.31104535 -.00000355  00000+0  00000+0 0  9995
2 49330   5.1189  61.1735 0049700 168.2898 278.0807  1.00269752  5380

SHIYAN-12 01 (SY-12 01)
1 50321U 21129A   26168.80373469  .00000079  00000+0  00000+0 0  9993
2 50321   3.6768  79.9013 0003248 285.9957 249.0802  1.00039709 16500

SHIYAN-12 02 (SY-12 02)
1 50322U 21129B   26168.77196078 -.00000271  00000+0  00000+0 0  9994
2 50322   3.6763  79.9071 0002693  60.0968 133.2903  1.00489217 16506

STPSAT-6
1 49817U 21118A   26170.22921882 -.00000052  00000+0  00000+0 0  9998
2 49817   0.3272  85.3538 0001205 253.8776 259.0996  1.00269401 16597

SYRACUSE 4A
1 49333U 21095B   26170.26038110  .00000129  00000+0  00000+0 0  9996
2 49333   0.0178  11.5381 0001635  69.1185 326.0593  1.00268750 17964

TIANLIAN 2-02
1 50005U 21124A   26170.21388771 -.00000021  00000+0  00000+0 0  9995
2 50005   0.8075  86.0693 0001423 196.0660 233.2649  1.00271079 16645

TIANLIAN 2-03
1 53100U 22078A   26170.25344773  .00000065  00000+0  00000+0 0  9998
2 53100   0.6762  77.0760 0001402 331.9962 320.2287  1.00271170 14568

TJS-7
1 49115U 21077A   26166.28660921 -.00000120  00000+0  00000+0 0  9994
2 49115   0.5030  86.1055 0001963 333.0157 208.1393  1.00269621  9536

TJS-9
1 50574U 21135A   26170.27851447 -.00000305  00000+0  00000+0 0  9994
2 50574   0.0371 241.7367 0003582 169.6053  93.6257  1.00273774 16451

TURKSAT 5B
1 50212U 21126A   26170.11708522  .00000140  00000+0  00000+0 0  9997
2 50212   0.0673 343.7991 0003234  12.4246 355.2631  1.00271147 16314

USA 324
1 51280U 22006A   26157.08795008 -.00000058  00000+0  00000+0 0  9996
2 51280   0.7690  83.2777 0002840 165.6787 110.1567  1.00289779 16021

WFOV (USA 332)
1 52940U 22073A   26170.27496112 -.00000369  00000+0  00000+0 0  9999
2 52940   3.7172  78.5031 0002089 254.6709 152.5687  1.00274131 14398

ZHONGXING-1D
1 49505U 21114A   26170.27712780 -.00000343  00000+0  00000+0 0  9991
2 49505   0.0132 273.2007 0000771 306.4889 277.7300  1.00267753 16841

ZHONGXING-1E
1 53813U 22112A   26170.12462525 -.00000156  00000+0  00000+0 0  9992
2 53813   0.0440 191.5841 0000715 125.1138  76.9266  1.00272178 13865

ZHONGXING-2E
1 49062U 21071A   26169.70875133 -.00000297  00000+0  00000+0 0  9997
2 49062   0.0363 206.9520 0001834 284.3744 128.8190  1.00269218 18059

ZHONGXING-6D
1 52255U 22038A   26169.91086348  .00000000  00000+0  00000+0 0  9995
2 52255   0.0139 312.5067 0000510 157.5982 249.9006  1.00269323 15441
